[{"OBJECT_NAME":"STARLINK-4773","OBJECT_ID":"2022-114W","EPOCH":"2026-03-09T22:01:18.108480","MEAN_MOTION":15.08828883,"ECCENTRICITY":0.00013288,"INCLINATION":53.2171,"RA_OF_ASC_NODE":293.2646,"ARG_OF_PERICENTER":95.1019,"MEAN_ANOMALY":265.0124,"EPHEMERIS_TYPE":0,"CLASSIFICATION_TYPE":"U","NORAD_CAT_ID":53838,"ELEMENT_SET_NO":999,"REV_AT_EPOCH":19300,"BSTAR":0.00011868593,"MEAN_MOTION_DOT":1.601e-5,"MEAN_MOTION_DDOT":0},{"OBJECT_NAME":"CZ-6A DEB","OBJECT_ID":"2024-140JQ","EPOCH":"2026-03-09T16:05:49.477056","MEAN_MOTION":15.15394204,"ECCENTRICITY":0.00800164,"INCLINATION":89.0638,"RA_OF_ASC_NODE":284.0631,"ARG_OF_PERICENTER":105.771,"MEAN_ANOMALY":255.2376,"EPHEMERIS_TYPE":0,"CLASSIFICATION_TYPE":"U","NORAD_CAT_ID":60861,"ELEMENT_SET_NO":999,"REV_AT_EPOCH":8511,"BSTAR":0.0025246282,"MEAN_MOTION_DOT":0.00051962,"MEAN_MOTION_DDOT":0}]
